{"type": "FeatureCollection", "features": [{"type": "Feature", "properties": {"OBJECTID": 459921, "Borough": "BK", "Block": 7065, "Lot": 1, "Address": "3001 West 37 Street", "OwnerName": "3628 Surf Avenue, LL", "LotArea": 26450.0, "PubPvt": "Private"}, "geometry": {"type": "Polygon", "coordinates": [[[983684.9656715393, 148068.3886127472], [983725.136868, 147799.96985721588], [983621.502892971, 147831.85367774963], [983581.9855852127, 148095.90070819855], [983684.9656715393, 148068.3886127472]]]}}, {"type": "Feature", "properties": {"OBJECTID": 319655, "Borough": "BK", "Block": 7065, "Lot": 6, "Address": "3616 Surf Avenue", "OwnerName": "Red Apple Surf Realty II LLC", "LotArea": 27588.0, "PubPvt": "Private"}, "geometry": {"type": "Polygon", "coordinates": [[[983831.9680185318, 147767.10281133652], [983725.136868, 147799.96985721588], [983684.9656715393, 148068.3886127472], [983791.1222982407, 148040.02780008316], [983831.9680185318, 147767.10281133652]]]}}, {"type": "Feature", "properties": {"OBJECTID": 287397, "Borough": "BK", "Block": 7065, "Lot": 12, "Address": "3602 Surf Avenue", "OwnerName": "Red Apple Surf Realty II LLC", "LotArea": 9827.0, "PubPvt": "Private"}, "geometry": {"type": "Polygon", "coordinates": [[[983831.3568019867, 148029.27879333496], [983872.4580974579, 147754.64582395554], [983831.9680185318, 147767.10281133652], [983791.1222982407, 148040.02780008316], [983831.3568019867, 148029.27879333496]]]}}, {"type": "Feature", "properties": {"OBJECTID": 319656, "Borough": "BK", "Block": 7065, "Lot": 7501, "Address": "1 Ocean Drive", "OwnerName": "Red Apple Surf Realty III LLC", "LotArea": 69848.0, "PubPvt": "Private"}, "geometry": {"type": "Polygon", "coordinates": [[[984138.612092495, 147966.42162275314], [984183.4722194672, 147659.0528240204], [984092.7666978836, 147686.95860004425], [983933.3870987892, 147735.99263620377], [983892.4304924011, 148014.3381986618], [984006.9617600441, 147992.04560041428], [984049.4462404251, 147983.7772436142], [984138.612092495, 147966.42162275314]]]}}, {"type": "Feature", "properties": {"OBJECTID": 459922, "Borough": "BK", "Block": 7066, "Lot": 1, "Address": "3330 Surf Avenue", "OwnerName": "3312 Surf Avenue Cats, LLC", "LotArea": 49283.0, "PubPvt": "Private"}, "geometry": {"type": "Polygon", "coordinates": [[[984355.7638731003, 147936.06637763977], [984396.5892629623, 147627.40394449234], [984244.8805813789, 147649.70736312866], [984200.8885264397, 147956.73170661926], [984355.7638731003, 147936.06637763977]]]}}, {"type": "Feature", "properties": {"OBJECTID": 459923, "Borough": "BK", "Block": 7066, "Lot": 10, "Address": "3301 Surf Avenue", "OwnerName": "Oceanview Manor Acquisition 1, LLC.", "LotArea": 30275.0, "PubPvt": "Private"}, "geometry": {"type": "Polygon", "coordinates": [[[984396.5892629623, 147627.40394449234], [984355.7638731003, 147936.06637763977], [984458.44708395, 147922.36498069763], [984499.4604439735, 147612.27995157242], [984396.5892629623, 147627.40394449234]]]}}, {"type": "Feature", "properties": {"OBJECTID": 459960, "Borough": "BK", "Block": 7066, "Lot": 46, "Address": "Boardwalk", "OwnerName": "Red Apple 3230 Surf Avenue, LLC", "LotArea": 4241.0, "PubPvt": "Private"}, "geometry": {"type": "Polygon", "coordinates": [[[984573.8901014328, 147737.6248435974], [984593.2781634331, 147601.91252422333], [984594.4438428879, 147593.75243282318], [984564.491147995, 147598.22980165482], [984563.6213994026, 147604.27439403534], [984544.1706700325, 147739.4529156685], [984573.8901014328, 147737.6248435974]]]}}, {"type": "Feature", "properties": {"OBJECTID": 287437, "Borough": "BK", "Block": 7066, "Lot": 48, "Address": "3224 Boardwalk", "OwnerName": "NYC Housing Preservation And Development", "LotArea": 3038.0, "PubPvt": "Public"}, "geometry": {"type": "Polygon", "coordinates": [[[984594.706641674, 147736.3443455696], [984614.1055545807, 147600.56146526337], [984615.5281200409, 147590.60085582733], [984594.4438428879, 147593.75243282318], [984593.2781634331, 147601.91252422333], [984573.8901014328, 147737.6248435974], [984594.706641674, 147736.3443455696]]]}}, {"type": "Feature", "properties": {"OBJECTID": 459961, "Borough": "BK", "Block": 7066, "Lot": 49, "Address": "Boardwalk", "OwnerName": "3224 Riegelmann LLC", "LotArea": 3038.0, "PubPvt": "Private"}, "geometry": {"type": "Polygon", "coordinates": [[[984613.0176296234, 147735.21835136414], [984632.424741745, 147599.37316942215], [984634.0740180016, 147587.82857227325], [984615.5281200409, 147590.60085582733], [984614.1055545807, 147600.56146526337], [984594.706641674, 147736.3443455696], [984613.0176296234, 147735.21835136414]]]}}, {"type": "Feature", "properties": {"OBJECTID": 287438, "Borough": "BK", "Block": 7066, "Lot": 50, "Address": "3220 Boardwalk", "OwnerName": "3224 Riegelmann LLC", "LotArea": 6278.0, "PubPvt": "Private"}, "geometry": {"type": "Polygon", "coordinates": [[[984675.4994688034, 147596.57854413986], [984677.6805610657, 147581.3101978302], [984634.0740180016, 147587.82857227325], [984632.424741745, 147599.37316942215], [984613.0176296234, 147735.21835136414], [984656.0716915131, 147732.57073116302], [984675.4994688034, 147596.57854413986]]]}}, {"type": "Feature", "properties": {"OBJECTID": 459962, "Borough": "BK", "Block": 7066, "Lot": 52, "Address": "3212R Boardwalk West", "OwnerName": "3212 Riegelmann Boardwalk Cats LLC", "LotArea": 6496.0, "PubPvt": "Private"}, "geometry": {"type": "Polygon", "coordinates": [[[984656.0716915131, 147732.57073116302], [984697.4597125053, 147730.02546310425], [984716.9078507423, 147593.8921842575], [984719.6000938416, 147575.04413747787], [984677.6805610657, 147581.3101978302], [984675.4994688034, 147596.57854413986], [984656.0716915131, 147732.57073116302]]]}}, {"type": "Feature", "properties": {"OBJECTID": 319660, "Borough": "BK", "Block": 7066, "Lot": 7501, "Address": "3030 West 32 Street", "OwnerName": "Unavailable Owner", "LotArea": 12868.0, "PubPvt": "Private"}, "geometry": {"type": "Polygon", "coordinates": [[[984779.2952017784, 147724.99201631546], [984802.4870839119, 147562.65438890457], [984758.3562531471, 147569.25115776062], [984733.593184948, 147572.95259571075], [984719.6000938416, 147575.04413747787], [984716.9078507423, 147593.8921842575], [984697.4597125053, 147730.02546310425], [984735.724076271, 147727.671792984], [984779.2952017784, 147724.99201631546]]]}}, {"type": "Feature", "properties": {"OBJECTID": 459992, "Borough": "BK", "Block": 7067, "Lot": 1, "Address": "3002 Surf Avenue", "OwnerName": "NYC Housing Authority", "LotArea": 271161.0, "PubPvt": "Public"}, "geometry": {"type": "Polygon", "coordinates": [[[985607.168861866, 147529.6426539421], [985603.0251584053, 147562.91127490997], [985544.0348105431, 147595.4430398941], [985389.0649757385, 147602.2205862999], [985384.6807847023, 147663.13288497925], [985151.5762581825, 147645.0623846054], [985153.9266672134, 147612.40955257416], [984976.734764576, 147587.82037305832], [984980.4607996941, 147536.05142211914], [984861.5689635277, 147553.8230652809], [984864.6969184875, 147553.5290851593], [984868.0916051865, 147553.50643873215], [984872.0443506241, 147553.9280385971], [984875.2159228325, 147554.61240768433], [984877.803527832, 147555.4139418602], [984879.9419784546, 147556.25284433365], [984882.2352676392, 147557.347322464], [984884.4714984894, 147558.62946605682], [984886.3569946289, 147559.8968577385], [984888.1378231049, 147561.2748003006], [984889.7444572449, 147562.6934337616], [984891.3704161644, 147564.3302435875], [984892.8848485947, 147566.07793951035], [984894.6269669533, 147568.43292045593], [984895.8369646072, 147570.3620648384], [984896.9166593552, 147572.3712491989], [984898.4511175156, 147575.98246622086], [984899.8001952171, 147580.8699131012], [984900.24310112, 147583.7764005661], [984900.4051938057, 147585.87745189667], [984900.1496186256, 147590.1307311058], [984899.7329258919, 147592.37381982803], [984896.7998905182, 147611.39938259125], [984896.0708684921, 147617.179895401], [984895.1335453987, 147621.62343120575], [984893.3756690025, 147626.6290192604], [984889.8366289139, 147633.0404086113], [984886.3251738548, 147637.4255747795], [984881.3576550484, 147641.90062713623], [984877.0745363235, 147644.69229602814], [984874.0013537407, 147646.19066524506], [984872.5131645203, 147647.08796787262], [984871.8734183311, 147647.64078474045], [984871.1017546654, 147648.4409775734], [984870.5679879189, 147649.1066622734], [984869.9642996788, 147650.01905202866], [984869.3415923119, 147651.24575281143], [984868.8081302643, 147652.8116965294], [984868.6135759354, 147653.7375588417], [984868.4964413643, 147654.74114513397], [984834.783604145, 147894.71901655197], [984889.0397276878, 147894.17570972443], [984929.8483538628, 147894.08582401276], [984968.3676528931, 147894.25151348114], [985009.0690193176, 147894.69213342667], [985044.6657071114, 147895.3003935814], [985093.0353693962, 147896.21244812012], [985127.0507211685, 147897.22197818756], [985160.364970684, 147898.39552164078], [985200.3599615097, 147900.04546833038], [985238.5757703781, 147902.52870941162], [985269.6616530418, 147904.51527786255], [985302.8863215446, 147906.89680671692], [985356.4636545181, 147911.22457933426], [985396.4976906776, 147914.6126818657], [985453.3223695755, 147919.66877555847], [985507.154302597, 147924.22947645187], [985554.6118793488, 147929.33345413208], [985591.845407486, 147933.08149576187], [985623.0152931213, 147937.10379695892], [985668.311132431, 147626.94954776764], [985668.3596873283, 147626.30815553665], [985668.3563952446, 147625.44825220108], [985668.2455091476, 147624.40525484085], [985667.9413790703, 147623.11753320694], [985667.4440054893, 147621.8521232605], [985666.7258338928, 147620.60801839828], [985665.9089074135, 147619.5762076378], [985665.0234007835, 147618.7245030403], [985664.0139012337, 147617.9833498001], [985661.9387574196, 147615.64872980118], [985659.3439593315, 147612.20679950714], [985656.5014500618, 147607.45712184906], [985653.9302434921, 147601.52801847458], [985652.103146553, 147594.7383108139], [985651.3032889366, 147586.27311372757], [985651.9538860321, 147578.45948934555], [985653.8787322044, 147570.98114538193], [985656.3301825523, 147565.23772621155], [985658.9479627609, 147560.74496555328], [985662.4935555458, 147556.0579547882], [985666.9784526825, 147551.5291056633], [985672.147749424, 147547.59309339523], [985677.335059166, 147544.65344381332], [985682.8055291176, 147542.42477226257], [985688.9026083946, 147540.8388338089], [985695.4797177315, 147540.083568573], [985703.5144753456, 147540.44283676147], [985607.168861866, 147529.6426539421]]]}}, {"type": "Feature", "properties": {"OBJECTID": 459993, "Borough": "BK", "Block": 7067, "Lot": 100, "Address": "2903 Boardwalk West", "OwnerName": "NYC Department Of Parks And Recreation", "LotArea": 29930.0, "PubPvt": "Public"}, "geometry": {"type": "Polygon", "coordinates": [[[985607.168861866, 147529.6426539421], [985394.5416631699, 147505.80806922913], [985104.4034566879, 147517.52457427979], [985005.1500453949, 147532.6902332306], [984980.4607996941, 147536.05142211914], [984976.734764576, 147587.82037305832], [985153.9266672134, 147612.40955257416], [985151.5762581825, 147645.0623846054], [985384.6807847023, 147663.13288497925], [985389.0649757385, 147602.2205862999], [985544.0348105431, 147595.4430398941], [985603.0251584053, 147562.91127490997], [985607.168861866, 147529.6426539421]]]}}, {"type": "Feature", "properties": {"OBJECTID": 287439, "Borough": "BK", "Block": 7068, "Lot": 30, "Address": "3020 West 28 Street", "OwnerName": "Shorefront Towers Housing Development Fund CORP", "LotArea": 32864.0, "PubPvt": "Private"}, "geometry": {"type": "Polygon", "coordinates": [[[985828.388876915, 147724.59995126724], [985905.0619578362, 147733.19474935532], [985913.3162021637, 147678.17189979553], [985987.503390789, 147686.48780488968], [986004.3534388542, 147574.16551923752], [985760.6865959167, 147546.8516049385], [985744.2401037216, 147668.77852392197], [985835.232717514, 147678.97831058502], [985828.388876915, 147724.59995126724]]]}}, {"type": "Feature", "properties": {"OBJECTID": 459995, "Borough": "BK", "Block": 7069, "Lot": 1, "Address": "2720 Surf Avenue", "OwnerName": "Ss Joachim &Anne Resi", "LotArea": 107468.0, "PubPvt": "Private"}, "geometry": {"type": "Polygon", "coordinates": [[[985997.5831160545, 147993.39074659348], [986231.6964716911, 148047.34502649307], [986297.8892579079, 147607.31048250198], [986304.2537689209, 147565.00086593628], [986058.6774725914, 147582.28461503983], [986058.0432739258, 147586.5510005951], [985997.5831160545, 147993.39074659348]]]}}, {"type": "Feature", "properties": {"OBJECTID": 287440, "Borough": "BK", "Block": 7069, "Lot": 14, "Address": "3001 West 27 Street", "OwnerName": "NYC Department Of Parks And Recreation", "LotArea": 131040.0, "PubPvt": "Public"}, "geometry": {"type": "Polygon", "coordinates": [[[986608.917828083, 147587.6927227974], [986366.8271093369, 147560.59634447098], [986365.6338758469, 147568.46080970764], [986290.6678304672, 148062.58615398407], [986524.7063879967, 148131.17360639572], [986607.0166034698, 147599.96305036545], [986608.917828083, 147587.6927227974]]]}}, {"type": "Feature", "properties": {"OBJECTID": 319661, "Borough": "BK", "Block": 7070, "Lot": 1, "Address": "3021 West 25 Street", "OwnerName": "NYC Housing Authority", "LotArea": 125818.0, "PubPvt": "Public"}, "geometry": {"type": "Polygon", "coordinates": [[[986862.0728392601, 147700.67676115036], [986860.6896543503, 147696.86541223526], [986859.6384577751, 147692.84835386276], [986858.997736454, 147689.0143890381], [986858.7040915489, 147685.4176197052], [986858.7093343735, 147681.65613651276], [986859.0180668831, 147678.0229434967], [986859.8313965797, 147673.48522424698], [986861.0072259903, 147669.3572793007], [986862.5134592056, 147665.49932670593], [986864.7346019745, 147661.16405630112], [986867.8287549019, 147656.54989290237], [986871.6952118874, 147652.1332101822], [986875.6286025047, 147648.63781785965], [986878.2542467117, 147646.7198600769], [986884.28835392, 147643.29399251938], [986889.9454836845, 147641.09912347794], [986895.4543280602, 147639.7615365982], [986897.768983841, 147623.9226641655], [986658.0834159851, 147596.3784122467], [986656.9905838966, 147603.9892835617], [986661.3281707764, 147605.23799037933], [986666.1073532104, 147607.20188188553], [986670.3921179771, 147609.54046440125], [986675.3074851036, 147613.33178806305], [986680.2500405312, 147618.17135095596], [986683.9321231842, 147623.40428972244], [986686.492814064, 147628.34160232544], [986688.4196414948, 147633.57255983353], [986689.3940587044, 147637.47281885147], [986690.1214346886, 147642.57877779007], [986690.2106499672, 147648.67686271667], [986689.6522550583, 147653.69196033478], [986688.1863775253, 147659.7365527153], [986685.9541091919, 147665.38548374176], [986681.2841677666, 147673.06691598892], [986677.3117318153, 147677.63447523117], [986673.1168527603, 147681.34085035324], [986668.2887806892, 147684.60855674744], [986664.1838173866, 147686.6954960823], [986660.7267994881, 147687.89921474457], [986657.9272665977, 147688.86640834808], [986654.9380869865, 147689.99993133545], [986651.9380869865, 147691.635430336], [986648.7130527496, 147694.108856678], [986646.195338726, 147696.69252967834], [986644.1556434631, 147699.5104112625], [986642.7081151009, 147703.4815363884], [986578.047164917, 148153.9078001976], [986770.9929919243, 148222.9988746643], [986808.2681555748, 148236.3466114998], [986881.4419121742, 147735.6425728798], [986881.3798851967, 147733.65701007843], [986881.033449173, 147730.86960840225], [986880.1646757126, 147727.41195058823], [986878.739824295, 147723.91850852966], [986877.4789862633, 147721.6619477272], [986876.78739357, 147720.6143784523], [986875.6554861069, 147719.1055240631], [986874.1017041206, 147717.35225009918], [986872.3244724274, 147715.68428993225], [986869.9540686607, 147713.2216835022], [986866.1453413963, 147708.295191288], [986863.9311170578, 147704.5986609459], [986862.0728392601, 147700.67676115036]]]}}, {"type": "Feature", "properties": {"OBJECTID": 319668, "Borough": "BK", "Block": 7070, "Lot": 148, "Address": "2301 Boardwalk West", "OwnerName": "Atlantic Geriatric Ventures", "LotArea": 76294.0, "PubPvt": "Private"}, "geometry": {"type": "Polygon", "coordinates": [[[987149.5447115898, 147981.90717029572], [987183.2595295906, 147751.07855939865], [987188.4928040504, 147715.24595594406], [986949.6717419624, 147638.22643852234], [986945.3085823059, 147667.560693264], [986897.3155622482, 147990.24803876877], [987031.9839391708, 148010.46814537048], [987038.7070178986, 147965.26514816284], [987149.5447115898, 147981.90717029572]]]}}, {"type": "Feature", "properties": {"OBJECTID": 287451, "Borough": "BK", "Block": 7071, "Lot": 226, "Address": "West 23 Street", "OwnerName": "NYC Department Of Citywide Administrative Services", "LotArea": 7316.0, "PubPvt": "Public"}, "geometry": {"type": "Polygon", "coordinates": [[[987335.5003933907, 147760.86726140976], [987243.055038929, 147731.90669250488], [987230.921505928, 147815.6962275505], [987330.2569389343, 147830.65846300125], [987335.5003933907, 147760.86726140976]]]}}, {"type": "Feature", "properties": {"OBJECTID": 287452, "Borough": "BK", "Block": 7071, "Lot": 231, "Address": "West 23 Street", "OwnerName": "NYC Department Of Citywide Administrative Services", "LotArea": 6841.0, "PubPvt": "Public"}, "geometry": {"type": "Polygon", "coordinates": [[[987335.5003933907, 147760.86726140976], [987330.2569389343, 147830.65846300125], [987446.2163801193, 147848.1249704361], [987452.5733017921, 147797.54303503036], [987335.5003933907, 147760.86726140976]]]}}, {"type": "Feature", "properties": {"OBJECTID": 287453, "Borough": "BK", "Block": 7071, "Lot": 300, "Address": "Boardwalk", "OwnerName": "NYC Department Of Citywide Administrative Services", "LotArea": 13320.0, "PubPvt": "Public"}, "geometry": {"type": "Polygon", "coordinates": [[[987507.927195549, 147811.32517385483], [987452.5733017921, 147797.54303503036], [987446.2163801193, 147848.1249704361], [987439.5739822388, 147895.83123397827], [987431.8522248268, 147951.30716991425], [987430.4959230423, 147961.0512495041], [987430.4886994362, 147961.10276079178], [987424.9742770195, 148000.72077417374], [987422.3991689682, 148019.22171401978], [987479.0476732254, 148027.52353811264], [987507.927195549, 147811.32517385483]]]}}, {"type": "Feature", "properties": {"OBJECTID": 287449, "Borough": "BK", "Block": 7071, "Lot": 142, "Address": "3045 West 22 Street", "OwnerName": "NYC Department Of Citywide Administrative Services", "LotArea": 42087.0, "PubPvt": "Public"}, "geometry": {"type": "Polygon", "coordinates": [[[987663.9734640121, 147861.66890764236], [987507.927195549, 147811.32517385483], [987473.3111124039, 148071.5890803337], [987613.8321790695, 148122.67494249344], [987625.5913257599, 148124.35735034943], [987663.9734640121, 147861.66890764236]]]}}, {"type": "Feature", "properties": {"OBJECTID": 319709, "Borough": "BK", "Block": 7071, "Lot": 130, "Address": "3052 West 21 Street", "OwnerName": "NYC Department Of Citywide Administrative Services", "LotArea": 25400.0, "PubPvt": "Public"}, "geometry": {"type": "Polygon", "coordinates": [[[987760.3971676826, 147892.77743673325], [987663.9734640121, 147861.66890764236], [987625.5913257599, 148124.35735034943], [987724.4927225113, 148138.50790166855], [987760.3971676826, 147892.77743673325]]]}}, {"type": "Feature", "properties": {"OBJECTID": 319753, "Borough": "BK", "Block": 7072, "Lot": 6, "Address": "2015 Boardwalk West", "OwnerName": "Unavailable Owner", "LotArea": 28137.0, "PubPvt": "Private"}, "geometry": {"type": "Polygon", "coordinates": [[[988066.5002207756, 147910.72324323654], [988067.3745718002, 147904.65338277817], [987818.3288211823, 147897.9634361267], [987816.9715437889, 147907.3876271248], [987778.1674699783, 148176.83657836914], [988013.3513765335, 148210.70593070984], [988045.1154403687, 147990.1414194107], [988041.9087553024, 147985.52298927307], [988039.2240409851, 147980.58500623703], [988037.0937895775, 147975.3855342865], [988035.5422930717, 147969.98690605164], [988034.5885415077, 147964.45248889923], [988034.2437210083, 147958.8471751213], [988034.5114574432, 147953.23792934418], [988035.389070034, 147947.69071102142], [988037.0764155388, 147941.6490445137], [988039.4887905121, 147935.85609579086], [988042.5891919136, 147930.3980922699], [988046.3329358101, 147925.35577583313], [988050.6636343002, 147920.80394411087], [988055.5176448822, 147916.80986738205], [988060.822760582, 147913.4328904152], [988066.5002207756, 147910.72324323654]]]}}, {"type": "Feature", "properties": {"OBJECTID": 319754, "Borough": "BK", "Block": 7072, "Lot": 20, "Address": "Surf Avenue", "OwnerName": "City Of New York", "LotArea": 3798.0, "PubPvt": "Public"}, "geometry": {"type": "Polygon", "coordinates": [[[988066.5002207756, 147910.72324323654], [988060.8201088905, 147913.42962884903], [988055.51304245, 147916.80462503433], [988050.6574163437, 147920.79772615433], [988046.325407505, 147925.34986257553], [988042.5819683075, 147930.39284944534], [988039.4825725555, 147935.8524684906], [988037.0731239319, 147941.6470937729], [988035.389070034, 147947.69071102142], [988034.5114574432, 147953.23792934418], [988034.2437210083, 147958.8471751213], [988034.5885415077, 147964.45248889923], [988035.5422930717, 147969.98690605164], [988037.0937895775, 147975.3855342865], [988039.2240409851, 147980.58500623703], [988041.9087553024, 147985.52298927307], [988045.1154403687, 147990.1414194107], [988013.3513765335, 148210.70593070984], [988023.0971016884, 148212.10947656631], [988060.5862050056, 147951.7887854576], [988066.4805307388, 147910.86073875427], [988066.5002207756, 147910.72324323654]]]}}, {"type": "Feature", "properties": {"OBJECTID": 287454, "Borough": "BK", "Block": 7073, "Lot": 101, "Address": "1904 Surf Avenue", "OwnerName": "NYC Department Of Parks And Recreation", "LotArea": 796579.0, "PubPvt": "Public"}, "geometry": {"type": "Polygon", "coordinates": [[[988929.7284960747, 148669.21748781204], [988931.4581480026, 148656.27129507065], [988979.0236549377, 148300.26872444153], [989012.8920316696, 148046.77547597885], [989017.3182244301, 148013.6466064453], [988362.5140686035, 147912.58118581772], [988312.6257071495, 147911.24097776413], [988067.3745718002, 147904.65338277817], [988066.5002207756, 147910.72324323654], [988066.4805307388, 147910.86073875427], [988060.5862050056, 147951.7887854576], [988023.0971016884, 148212.10947656631], [988078.8023695946, 148220.1317677498], [988011.515745163, 148687.36016464233], [988018.4583411217, 148690.1416530609], [988058.527794838, 148705.10684490204], [988077.7669315338, 148712.2918791771], [988148.2996211052, 148736.11137628555], [988232.3922805786, 148761.05028438568], [988305.4541449547, 148779.76056098938], [988385.3424458504, 148797.16144514084], [988452.3770914078, 148808.08299922943], [988511.499997139, 148817.12268447876], [988901.9900250435, 148876.8253211975], [988927.536552906, 148685.62197828293], [988929.7284960747, 148669.21748781204]]]}}, {"type": "Feature", "properties": {"OBJECTID": 287455, "Borough": "BK", "Block": 7074, "Lot": 2, "Address": "Boardwalk West", "OwnerName": "NYC Department Of Parks And Recreation", "LotArea": 48779.0, "PubPvt": "Public"}, "geometry": {"type": "Polygon", "coordinates": [[[989205.2466368675, 148042.65246868134], [989200.2915844917, 148041.88769340515], [989139.9731593132, 148032.57768058777], [989130.292722702, 148031.08357858658], [989120.2363142967, 148029.53141212463], [989055.6662254333, 148019.56522464752], [989017.3182244301, 148013.6466064453], [989012.8920316696, 148046.77547597885], [988979.0236549377, 148300.26872444153], [988981.007601738, 148292.88325357437], [988984.2900605202, 148285.9721736908], [988988.7631621361, 148279.75960588455], [988994.2828269005, 148274.44726657867], [989000.6696186066, 148270.20712423325], [989007.7161822319, 148267.1769490242], [989015.1941905022, 148265.45516109467], [989022.8608403206, 148265.09787368774], [989029.7893238068, 148265.97682714462], [989036.481221199, 148267.96958303452], [989042.7571268082, 148271.02274036407], [989048.4497051239, 148275.0545516014], [989053.4057326317, 148279.95678138733], [989057.4929866791, 148285.59848833084], [989060.601922512, 148291.82879590988], [989062.6494812965, 148298.48036813736], [989083.4401140213, 148304.93570947647], [989093.2947750092, 148307.9954199791], [989102.7816329002, 148310.94095230103], [989161.8917369843, 148329.29394197464], [989166.7473630905, 148330.80148553848], [989202.0173048973, 148066.82202911377], [989205.2466368675, 148042.65246868134]]]}}, {"type": "Feature", "properties": {"OBJECTID": 460062, "Borough": "BK", "Block": 7074, "Lot": 230, "Address": "Boardwalk West", "OwnerName": "NYC Department Of Citywide Administrative Services", "LotArea": 13814.0, "PubPvt": "Public"}, "geometry": {"type": "Polygon", "coordinates": [[[989255.5060625076, 148050.4096441269], [989210.1767559052, 148043.41328144073], [989205.2466368675, 148042.65246868134], [989202.0173048973, 148066.82202911377], [989166.7473630905, 148330.80148553848], [989171.5787272453, 148332.30180549622], [989215.9999108315, 148346.09378957748], [989253.0782341957, 148068.57990550995], [989255.5060625076, 148050.4096441269]]]}}, {"type": "Feature", "properties": {"OBJECTID": 460064, "Borough": "BK", "Block": 7074, "Lot": 370, "Address": "15 Street", "OwnerName": "NYC Department Of Parks And Recreation", "LotArea": 24235.0, "PubPvt": "Public"}, "geometry": {"type": "Polygon", "coordinates": [[[989295.402633667, 148343.20501089096], [989296.5843763351, 148334.21257019043], [989332.585290432, 148060.24757146835], [989255.5060625076, 148050.4096441269], [989253.0782341957, 148068.57990550995], [989215.9999108315, 148346.09378957748], [989227.7515287399, 148349.74240493774], [989231.2469210625, 148323.5757908821], [989295.402633667, 148343.20501089096]]]}}, {"type": "Feature", "properties": {"OBJECTID": 319769, "Borough": "BK", "Block": 7074, "Lot": 382, "Address": "Boardwalk West", "OwnerName": "Central Amusement International INC", "LotArea": 58093.0, "PubPvt": "Private"}, "geometry": {"type": "Polygon", "coordinates": [[[989537.9513459206, 148089.9774875641], [989460.6680541039, 148078.7895374298], [989450.8163495064, 148077.36334466934], [989396.454916954, 148069.49360656738], [989332.585290432, 148060.24757146835], [989296.5843763351, 148334.21257019043], [989400.3902893066, 148365.9962940216], [989419.6671295166, 148371.89851379395], [989504.7240562439, 148397.94241523743], [989508.886138916, 148359.36541748047], [989537.9513459206, 148089.9774875641]]]}}, {"type": "Feature", "properties": {"OBJECTID": 460065, "Borough": "BK", "Block": 7074, "Lot": 450, "Address": "Stillwell Avenue", "OwnerName": "NYC Department Of Parks And Recreation", "LotArea": 31463.0, "PubPvt": "Public"}, "geometry": {"type": "Polygon", "coordinates": [[[989625.278275013, 148101.79735040665], [989537.9513459206, 148089.9774875641], [989508.886138916, 148359.36541748047], [989504.7240562439, 148397.94241523743], [989503.7647571564, 148406.8311934471], [989515.0721282959, 148410.29083299637], [989530.7899641991, 148414.97619724274], [989546.7840104103, 148418.61527252197], [989562.9847722054, 148421.19336795807], [989579.321018219, 148422.69829034805], [989590.4108834267, 148423.36790657043], [989590.6313762665, 148423.38134860992], [989612.8143987656, 148217.486433506], [989625.278275013, 148101.79735040665]]]}}, {"type": "Feature", "properties": {"OBJECTID": 370895, "Borough": "BK", "Block": 8695, "Lot": 85, "Address": "1205 Boardwalk West", "OwnerName": "Central Amusement International INC", "LotArea": 92884.0, "PubPvt": "Private"}, "geometry": {"type": "Polygon", "coordinates": [[[989865.8630957603, 148135.4629740715], [989792.890812397, 148125.2516965866], [989702.9946579933, 148112.67266654968], [989687.766667366, 148110.54174470901], [989668.714861393, 148107.87541007996], [989625.278275013, 148101.79735040665], [989612.8143987656, 148217.486433506], [989590.6313762665, 148423.38134860992], [989870.7157959938, 148440.29241800308], [989869.6787118912, 148375.16030693054], [989865.8630957603, 148135.4629740715]]]}}, {"type": "Feature", "properties": {"OBJECTID": 540457, "Borough": "BK", "Block": 8695, "Lot": 500, "Address": "12 Street", "OwnerName": "NYC Department Of Parks And Recreation", "LotArea": 17652.0, "PubPvt": "Public"}, "geometry": {"type": "Polygon", "coordinates": [[[989926.1648182869, 148399.0962986946], [989925.9548411369, 148380.57926559448], [989924.6366086006, 148264.45712184906], [989923.2960653305, 148146.37404346466], [989865.8630957603, 148135.4629740715], [989869.6787118912, 148375.16030693054], [989870.7157959938, 148440.29241800308], [989926.6710615158, 148443.6706752777], [989926.1648182869, 148399.0962986946]]]}}, {"type": "Feature", "properties": {"OBJECTID": 540489, "Borough": "BK", "Block": 8696, "Lot": 166, "Address": "1027 Boardwalk West", "OwnerName": "NYC Economic Development Corporation", "LotArea": 13747.0, "PubPvt": "Public"}, "geometry": {"type": "Polygon", "coordinates": [[[989923.2960653305, 148146.37404346466], [989924.6366086006, 148264.45712184906], [990072.5674090385, 148250.97124958038], [990064.6999869347, 148166.3602156639], [989923.2960653305, 148146.37404346466]]]}}, {"type": "Feature", "properties": {"OBJECTID": 540491, "Borough": "BK", "Block": 8696, "Lot": 210, "Address": "Surf Ave", "OwnerName": "NYC Economic Development Corporation", "LotArea": 4080.0, "PubPvt": "Public"}, "geometry": {"type": "Polygon", "coordinates": [[[990105.5762176514, 148305.33106660843], [990096.0207796097, 148305.88683986664], [990092.1175637245, 148303.49805641174], [990079.561150074, 148168.46059656143], [990064.6999869347, 148166.3602156639], [990072.5674090385, 148250.97124958038], [990083.2852344513, 148366.23678159714], [990083.9650316238, 148373.5487651825], [990112.2914018631, 148377.55238199234], [990105.5762176514, 148305.33106660843]]]}}, {"type": "Feature", "properties": {"OBJECTID": 370948, "Borough": "BK", "Block": 8696, "Lot": 75, "Address": "1025 Boardwalk West", "OwnerName": "NYC Economic Development Corporation", "LotArea": 2025.0, "PubPvt": "Public"}, "geometry": {"type": "Polygon", "coordinates": [[[990105.5762176514, 148305.33106660843], [990093.0260219574, 148170.3641371727], [990079.561150074, 148168.46059656143], [990092.1175637245, 148303.49805641174], [990096.0207796097, 148305.88683986664], [990105.5762176514, 148305.33106660843]]]}}, {"type": "Feature", "properties": {"OBJECTID": 370951, "Borough": "BK", "Block": 8696, "Lot": 212, "Address": "1001 Boardwalk West", "OwnerName": "Central Amusement International INC", "LotArea": 56717.0, "PubPvt": "Private"}, "geometry": {"type": "Polygon", "coordinates": [[[990314.4796667099, 148437.90625572205], [990292.2205052376, 148198.51893520355], [990093.0260219574, 148170.3641371727], [990105.5762176514, 148305.33106660843], [990112.2914018631, 148377.55238199234], [990115.5962023735, 148413.0949678421], [990121.4413332939, 148475.9557352066], [990261.6493697166, 148484.52264404297], [990261.5224204063, 148479.43143749237], [990261.9882774353, 148474.36025619507], [990263.040784359, 148469.37633943558], [990264.6657681465, 148464.54759693146], [990266.8413128853, 148459.9393467903], [990269.5381584167, 148455.61258029938], [990272.7195754051, 148451.62636756897], [990276.3435935974, 148448.0338654518], [990280.3606219292, 148444.883934021], [990284.7172589302, 148442.21857452393], [990289.354373455, 148440.07390642166], [990294.2093596458, 148438.47876262665], [990299.2175383568, 148437.4544801712], [990304.3110308647, 148437.01517105103], [990309.421257019, 148437.16644382477], [990314.4796667099, 148437.90625572205]]]}}, {"type": "Feature", "properties": {"OBJECTID": 370954, "Borough": "BK", "Block": 8696, "Lot": 250, "Address": "Surf Ave", "OwnerName": "NYC Department Of Parks And Recreation", "LotArea": 36697.0, "PubPvt": "Public"}, "geometry": {"type": "Polygon", "coordinates": [[[990430.1976146698, 148859.81814813614], [990368.5832381248, 148211.1317677498], [990292.2205052376, 148198.51893520355], [990314.4796667099, 148437.90625572205], [990320.6469721794, 148440.01584148407], [990326.3795704842, 148442.51877307892], [990331.6994385719, 148445.80421876907], [990336.498980999, 148449.80615901947], [990340.682369709, 148454.44427967072], [990344.1649603844, 148459.62503671646], [990346.8768930435, 148465.24446249008], [990348.7637004852, 148471.18932390213], [990349.7876477242, 148477.34023094177], [990386.8253107071, 148867.28466558456], [990430.1976146698, 148859.81814813614]]]}}, {"type": "Feature", "properties": {"OBJECTID": 540493, "Borough": "BK", "Block": 8697, "Lot": 4, "Address": "817 Boardwalk West", "OwnerName": "NYC Department Of Parks And Recreation", "LotArea": 48698.0, "PubPvt": "Public"}, "geometry": {"type": "Polygon", "coordinates": [[[990504.9454836845, 148850.94153118134], [990445.2110257149, 148222.04777479172], [990368.5832381248, 148211.1317677498], [990430.1976146698, 148859.81814813614], [990504.9454836845, 148850.94153118134]]]}}, {"type": "Feature", "properties": {"OBJECTID": 370955, "Borough": "BK", "Block": 8697, "Lot": 8, "Address": "801 Boardwalk West", "OwnerName": "N Y Zoological Societ", "LotArea": 70846.0, "PubPvt": "Private"}, "geometry": {"type": "Polygon", "coordinates": [[[990575.7179903984, 148240.63893556595], [990445.2110257149, 148222.04777479172], [990504.9454836845, 148850.94153118134], [990559.3886027336, 148844.4668045044], [990617.362593174, 148837.20334482193], [990575.7179903984, 148240.63893556595]]]}}, {"type": "Feature", "properties": {"OBJECTID": 540495, "Borough": "BK", "Block": 8698, "Lot": 50, "Address": "Surf Avenue", "OwnerName": "NYC Department Of Parks And Recreation", "LotArea": 39953.0, "PubPvt": "Public"}, "geometry": {"type": "Polygon", "coordinates": [[[990687.5373249054, 148826.4901213646], [990675.0448889732, 148647.5370812416], [990675.0665302277, 148645.58202934265], [990675.1823544502, 148643.90946626663], [990675.4976401329, 148642.5072312355], [990675.9871497154, 148640.95802116394], [990676.9343175888, 148638.63190460205], [990678.2774825096, 148636.48985767365], [990679.1003222466, 148635.4203119278], [990680.0625777245, 148634.33695936203], [990682.0514321327, 148632.81694936752], [990683.1124429703, 148632.12995910645], [990684.7315440178, 148631.37438869476], [990687.4083638191, 148630.3993010521], [990692.6262149811, 148629.20180034637], [990688.8526005745, 148575.14090156555], [990676.2932305336, 148576.18289279938], [990670.4979653358, 148575.9591383934], [990665.5793366432, 148574.7278356552], [990661.2939314842, 148572.7445588112], [990657.824447155, 148570.37811756134], [990655.2483334541, 148568.0073785782], [990652.4114017487, 148564.4660525322], [990650.3126363754, 148560.6993265152], [990648.799849987, 148556.44964408875], [990647.9675002098, 148551.1350493431], [990644.8431720734, 148506.38117551804], [990645.0449500084, 148501.40942049026], [990645.817589283, 148494.56493997574], [990646.997045517, 148488.89598417282], [990648.0223035812, 148484.32906484604], [990649.4061594009, 148480.04332447052], [990650.9363193512, 148476.1033501625], [990653.9563446045, 148469.9767355919], [990678.2591032982, 148425.65366744995], [990679.8040456772, 148421.80787611008], [990681.1019477844, 148417.9161515236], [990682.2843608856, 148413.2498064041], [990682.8020954132, 148410.17074155807], [990683.0373096466, 148406.7724585533], [990682.828643322, 148402.453250885], [990682.2584528923, 148397.73771095276], [990681.4907212257, 148393.8253211975], [990680.5619325638, 148390.6563396454], [990677.8827962875, 148383.58124685287], [990673.8801851273, 148377.86800336838], [990669.1941804886, 148372.59961605072], [990664.2962174416, 148368.56649446487], [990658.2351965904, 148364.66657066345], [990652.2561974525, 148361.92970514297], [990646.4212470055, 148360.4172539711], [990642.1145057678, 148358.9480843544], [990639.7693696022, 148357.67971754074], [990637.5492324829, 148356.02388858795], [990635.9074850082, 148353.99007606506], [990634.7605204582, 148352.04224777222], [990634.1030349731, 148350.30668258667], [990633.7664132118, 148349.1006474495], [990625.8222122192, 148247.77672576904], [990575.7179903984, 148240.63893556595], [990617.362593174, 148837.20334482193], [990687.5373249054, 148826.4901213646]]]}}, {"type": "Feature", "properties": {"OBJECTID": 540494, "Borough": "BK", "Block": 8698, "Lot": 1, "Address": "610 Surf Avenue", "OwnerName": "NYC Department Of Parks And Recreation", "LotArea": 939211.0, "PubPvt": "Public"}, "geometry": {"type": "Polygon", "coordinates": [[[991660.6013231277, 148638.39175224304], [991610.3199210167, 148393.53036546707], [991541.3685975075, 148378.20099782944], [990625.8222122192, 148247.77672576904], [990633.7664132118, 148349.1006474495], [990634.1030349731, 148350.30668258667], [990634.7605204582, 148352.04224777222], [990635.9074850082, 148353.99007606506], [990637.5492324829, 148356.02388858795], [990639.7693696022, 148357.67971754074], [990642.1145057678, 148358.9480843544], [990646.4212470055, 148360.4172539711], [990652.2561974525, 148361.92970514297], [990658.2351965904, 148364.66657066345], [990664.2962174416, 148368.56649446487], [990669.1941804886, 148372.59961605072], [990673.8801851273, 148377.86800336838], [990677.8827962875, 148383.58124685287], [990680.5619325638, 148390.6563396454], [990681.4907212257, 148393.8253211975], [990682.2584528923, 148397.73771095276], [990682.828643322, 148402.453250885], [990683.0373096466, 148406.7724585533], [990682.8020954132, 148410.17074155807], [990682.2843608856, 148413.2498064041], [990681.1019477844, 148417.9161515236], [990679.8040456772, 148421.80787611008], [990678.2591032982, 148425.65366744995], [990653.9563446045, 148469.9767355919], [990650.9363193512, 148476.1033501625], [990649.4061594009, 148480.04332447052], [990648.0223035812, 148484.32906484604], [990646.997045517, 148488.89598417282], [990645.817589283, 148494.56493997574], [990645.0449500084, 148501.40942049026], [990644.8431720734, 148506.38117551804], [990647.9675002098, 148551.1350493431], [990648.799849987, 148556.44964408875], [990650.3126363754, 148560.6993265152], [990652.4114017487, 148564.4660525322], [990655.2483334541, 148568.0073785782], [990657.824447155, 148570.37811756134], [990661.2939314842, 148572.7445588112], [990665.5793366432, 148574.7278356552], [990670.4979653358, 148575.9591383934], [990676.2932305336, 148576.18289279938], [990688.8526005745, 148575.14090156555], [990692.6262149811, 148629.20180034637], [990687.4083638191, 148630.3993010521], [990684.7315440178, 148631.37438869476], [990683.1124429703, 148632.12995910645], [990682.0514321327, 148632.81694936752], [990680.0625777245, 148634.33695936203], [990679.1003222466, 148635.4203119278], [990678.2774825096, 148636.48985767365], [990676.9343175888, 148638.63190460205], [990675.9871497154, 148640.95802116394], [990675.4976401329, 148642.5072312355], [990675.1823544502, 148643.90946626663], [990675.0665302277, 148645.58202934265], [990675.0448889732, 148647.5370812416], [990687.5373249054, 148826.4901213646], [990852.4496951103, 148798.30021047592], [990978.6581177711, 148776.42296409607], [991132.454073906, 148746.42040348053], [991202.0868096352, 148733.37121868134], [991337.7417039871, 148706.93884897232], [991565.1247878075, 148659.7283129692], [991660.6013231277, 148638.39175224304]]]}}, {"type": "Feature", "properties": {"OBJECTID": 539403, "Borough": "BK", "Block": 8657, "Lot": 1, "Address": "302 Sea Breeze Avenue", "OwnerName": "NYC Department Of Parks And Recreation", "LotArea": 527800.0, "PubPvt": "Public"}, "geometry": {"type": "Polygon", "coordinates": [[[991610.3199210167, 148393.53036546707], [991660.6013231277, 148638.39175224304], [991662.9982748032, 148650.0659508705], [991678.7259559631, 148726.65469360352], [991703.857131958, 148849.04125213623], [991767.6804900169, 149114.43772649765], [991891.3255701065, 149100.21563863754], [991980.3487143517, 149090.15923023224], [992038.6911172867, 149081.78718042374], [992071.8321180344, 149077.03162002563], [992115.9963850975, 149070.69435834885], [992152.3181633949, 149065.1602458954], [992215.885945797, 149054.1107363701], [992293.7142210007, 149038.5677947998], [992353.8184323311, 149024.72167873383], [992403.8406319618, 149011.15149831772], [992443.0085468292, 148999.8362326622], [992497.2640004158, 148984.16140413284], [992522.9614653587, 148975.55020809174], [992565.0007538795, 148961.0154557228], [992627.0757451057, 148938.41083288193], [992685.3279271126, 148915.75110197067], [992733.2986354828, 148895.44537687302], [992759.3563141823, 148884.15601968765], [992798.1167407036, 148866.52580356598], [992819.7308835983, 148855.92444229126], [992817.3614549637, 148843.10065746307], [992793.280134201, 148712.7748055458], [992782.4415769577, 148654.1180920601], [991610.3199210167, 148393.53036546707]]]}}, {"type": "Feature", "properties": {"OBJECTID": 540415, "Borough": "BK", "Block": 8681, "Lot": 1, "Address": "170 Ocean Parkway", "OwnerName": "NYC Department Of Parks And Recreation", "LotArea": 5268.0, "PubPvt": "Public"}, "geometry": {"type": "Polygon", "coordinates": [[[993010.6163191795, 148781.95741128922], [993153.8660526276, 148749.74126720428], [992997.866997242, 148714.09764003754], [993010.6163191795, 148781.95741128922]]]}}, {"type": "Feature", "properties": {"OBJECTID": 540414, "Borough": "BK", "Block": 8679, "Lot": 7501, "Address": "3111 Ocean Parkway", "OwnerName": "Seabreeze Plaza Condominium", "LotArea": 33381.0, "PubPvt": "Private"}, "geometry": {"type": "Polygon", "coordinates": [[[993246.8287754059, 148946.44461488724], [993217.8324532509, 148785.79893541336], [993160.2288870811, 148774.15097999573], [993015.7505025864, 148806.7421207428], [993046.6500606537, 148981.93895053864], [993246.8287754059, 148946.44461488724]]]}}, {"type": "Feature", "properties": {"OBJECTID": 370655, "Borough": "BK", "Block": 8680, "Lot": 1, "Address": "40 Brighton 1 Street", "OwnerName": "40-50 Brighton Firstroad Apts CORP", "LotArea": 77620.0, "PubPvt": "Private"}, "geometry": {"type": "Polygon", "coordinates": [[[993325.3522400856, 149128.25001001358], [993424.4914727211, 149111.18379688263], [993525.0546121597, 149093.87246370316], [993463.8647623062, 148749.6441578865], [993369.5798449516, 148757.30096244812], [993292.7716150284, 148766.3334236145], [993265.4455394745, 148769.94003772736], [993271.3359332085, 148808.9822831154], [993255.6611046791, 148811.42059659958], [993327.0316915512, 149211.32301998138], [993340.3558363914, 149212.52445220947], [993325.3522400856, 149128.25001001358]]]}}, {"type": "Feature", "properties": {"OBJECTID": 540417, "Borough": "BK", "Block": 8684, "Lot": 62, "Address": "201 Brighton 1 Road", "OwnerName": "Broadwalk Management Co. LLC", "LotArea": 22000.0, "PubPvt": "Private"}, "geometry": {"type": "Polygon", "coordinates": [[[993711.8156995773, 148733.5470585823], [993513.2626385689, 148741.61071109772], [993532.0723109245, 148848.1790623665], [993552.9951658249, 148848.6672616005], [993572.858320713, 148849.1304974556], [993591.5023036003, 148849.56553936005], [993611.8332967758, 148850.03962612152], [993632.7220444679, 148850.52648448944], [993652.0976400375, 148850.9785952568], [993671.8105278015, 148851.43856954575], [993692.0992150307, 148851.91165065765], [993711.6930170059, 148852.3686990738], [993732.8750443459, 148852.86278104782], [993711.8156995773, 148733.5470585823]]]}}, {"type": "Feature", "properties": {"OBJECTID": 339471, "Borough": "BK", "Block": 8684, "Lot": 86, "Address": "126 Brightwater Court", "OwnerName": "NYC Department Of Parks And Recreation", "LotArea": 54044.0, "PubPvt": "Public"}, "geometry": {"type": "Polygon", "coordinates": [[[994009.320022583, 148737.5500049591], [993711.8156995773, 148733.5470585823], [993732.8750443459, 148852.86278104782], [993747.0574469566, 148933.2152929306], [993982.6642642021, 148938.71069574356], [994009.320022583, 148737.5500049591]]]}}, {"type": "Feature", "properties": {"OBJECTID": 540451, "Borough": "BK", "Block": 8687, "Lot": 20, "Address": "311 Boardwalk East", "OwnerName": "NYC Department Of Transportation", "LotArea": 47840.0, "PubPvt": "Public"}, "geometry": {"type": "Polygon", "coordinates": [[[994433.6407237053, 148781.28416776657], [994301.5110611916, 148762.18612384796], [994193.753713131, 148750.79703569412], [994067.4750947952, 148742.17861557007], [994054.8120622635, 148845.0442185402], [994511.2183003426, 148902.44305038452], [994524.1159381866, 148797.67293071747], [994433.6407237053, 148781.28416776657]]]}}, {"type": "Feature", "properties": {"OBJECTID": 540454, "Borough": "BK", "Block": 8690, "Lot": 7501, "Address": "3145 Brighton 4 Street", "OwnerName": "3145 Brighton 4Th Owners CORP", "LotArea": 19082.0, "PubPvt": "Private"}, "geometry": {"type": "Polygon", "coordinates": [[[994676.3196768761, 148811.1194229126], [994580.8907513618, 148803.6998143196], [994556.7569441795, 149012.36116027832], [994664.0615110397, 149018.22793197632], [994676.3196768761, 148811.1194229126]]]}}, {"type": "Feature", "properties": {"OBJECTID": 370817, "Borough": "BK", "Block": 8690, "Lot": 91, "Address": "500 Brightwater Court", "OwnerName": "Brighton House INC", "LotArea": 41800.0, "PubPvt": "Private"}, "geometry": {"type": "Polygon", "coordinates": [[[994896.4222626686, 148824.89958047867], [994676.3196768761, 148811.1194229126], [994664.0615110397, 149018.22793197632], [994886.4229435921, 149030.38472175598], [994896.4222626686, 148824.89958047867]]]}}, {"type": "Feature", "properties": {"OBJECTID": 540453, "Borough": "BK", "Block": 8690, "Lot": 83, "Address": "3152 Brighton 6 Street", "OwnerName": "Casol Realty LLC", "LotArea": 31315.0, "PubPvt": "Private"}, "geometry": {"type": "Polygon", "coordinates": [[[995043.3258543015, 148833.38513803482], [994896.4222626686, 148824.89958047867], [994886.4229435921, 149030.38472175598], [995021.7678256035, 149037.78433561325], [995043.3258543015, 148833.38513803482]]]}}, {"type": "Feature", "properties": {"OBJECTID": 370879, "Borough": "BK", "Block": 8693, "Lot": 12, "Address": "3161 Brighton 6 Street", "OwnerName": "Brighton Beach Housing Development Fund  Co INC", "LotArea": 30000.0, "PubPvt": "Private"}, "geometry": {"type": "Polygon", "coordinates": [[[995213.6985440254, 148916.2087907791], [995294.8578329086, 148921.01125955582], [995298.0428471565, 148849.73317956924], [995101.0691714287, 148838.07803106308], [995078.6738553047, 149036.9664030075], [995207.8494510651, 149044.1895070076], [995213.6985440254, 148916.2087907791]]]}}, {"type": "Feature", "properties": {"OBJECTID": 370878, "Borough": "BK", "Block": 8693, "Lot": 1, "Address": "3328 Coney Island Avenue", "OwnerName": "3328 Coney Island Avenue, LLC", "LotArea": 51000.0, "PubPvt": "Private"}, "geometry": {"type": "Polygon", "coordinates": [[[995298.0428471565, 148849.73317956924], [995294.8578329086, 148921.01125955582], [995213.6985440254, 148916.2087907791], [995207.8494510651, 149044.1895070076], [995459.6458745003, 149058.26983213425], [995468.5129814148, 148859.819794178], [995298.0428471565, 148849.73317956924]]]}}, {"type": "Feature", "properties": {"OBJECTID": 340020, "Borough": "BK", "Block": 8720, "Lot": 7502, "Address": "120 Oceana Drive West", "OwnerName": "Unavailable Owner", "LotArea": 54944.0, "PubPvt": "Private"}, "geometry": {"type": "Polygon", "coordinates": [[[995680.6149172783, 149117.97313928604], [995819.3321738243, 149126.66931390762], [995830.2015771866, 148918.87543010712], [995691.4843201637, 148910.17925548553], [995567.8116559982, 148902.42601203918], [995555.8553338051, 149110.15195560455], [995680.6149172783, 149117.97313928604]]]}}, {"type": "Feature", "properties": {"OBJECTID": 371671, "Borough": "BK", "Block": 8720, "Lot": 14, "Address": "3209 Coney Island Avenue", "OwnerName": "Oceana Homeowners Association, INC.", "LotArea": 76788.0, "PubPvt": "Private"}, "geometry": {"type": "Polygon", "coordinates": [[[996014.6201496124, 149364.97559785843], [995981.1156435013, 149362.8752169609], [995984.3229689598, 149301.5626540184], [995982.825940609, 149301.46883630753], [995991.4384479523, 149136.8188996315], [996002.2747192383, 148929.66250658035], [995830.2015771866, 148918.87543010712], [995819.3321738243, 149126.66931390762], [995810.4457120895, 149296.5567612648], [995808.9483180046, 149296.4626083374], [995806.0487194061, 149351.9001698494], [995780.6413025856, 149350.30731248856], [995779.3529105186, 149374.93523216248], [995896.5153999329, 149382.28001260757], [996013.8596720695, 149389.63631391525], [996014.6201496124, 149364.97559785843]]]}}, {"type": "Feature", "properties": {"OBJECTID": 340026, "Borough": "BK", "Block": 8720, "Lot": 7509, "Address": "125 Oceana Drive East", "OwnerName": "Brighton Nine, LLC", "LotArea": 56964.0, "PubPvt": "Private"}, "geometry": {"type": "Polygon", "coordinates": [[[996002.2747192383, 148929.66250658035], [995991.4384479523, 149136.8188996315], [996130.0395450592, 149145.50785064697], [996269.9736571312, 149154.28016471863], [996280.8095932007, 148947.12407636642], [996140.8758163452, 148938.35145759583], [996002.2747192383, 148929.66250658035]]]}}, {"type": "Feature", "properties": {"OBJECTID": 540609, "Borough": "BK", "Block": 8721, "Lot": 375, "Address": "1311 Brightwater Avenue", "OwnerName": "Tower Owners INC", "LotArea": 44800.0, "PubPvt": "Private"}, "geometry": {"type": "Polygon", "coordinates": [[[996329.9492425919, 149182.68069314957], [996425.5888161659, 149187.84538698196], [996515.680835247, 149214.8390774727], [996562.2916455269, 149250.92530584335], [996637.1930732727, 149144.3641781807], [996642.5831365585, 149136.1827507019], [996645.4876728058, 149130.96489953995], [996648.2261843681, 149125.5777926445], [996651.1208453178, 149119.35733032227], [996652.9285874367, 149114.7228064537], [996655.4003682137, 149106.34850120544], [996657.3639545441, 149096.73825979233], [996658.4449906349, 149087.46107387543], [996660.3357300758, 149051.31053304672], [996337.7323870659, 149033.88965415955], [996329.9492425919, 149182.68069314957]]]}}, {"type": "Feature", "properties": {"OBJECTID": 371732, "Borough": "BK", "Block": 8723, "Lot": 410, "Address": "1511 Corbin Place", "OwnerName": "1511 Brightwater Avenue Owner LLC", "LotArea": 42000.0, "PubPvt": "Private"}, "geometry": {"type": "Polygon", "coordinates": [[[996900.9054632187, 149338.3765630722], [996906.6029486656, 149299.34678411484], [996914.7167711258, 149243.76486873627], [996920.6639494896, 149203.02710914612], [996926.5793061256, 149162.5038986206], [996932.5769896507, 149121.41604471207], [996938.2242746353, 149082.73370790482], [996944.0553236008, 149042.78824710846], [996950.0146021843, 149001.96779489517], [996951.8794331551, 148989.1932053566], [996737.056055069, 148975.72571229935], [996731.1833701134, 149101.69166612625], [996731.1154608727, 149114.44656562805], [996733.5944347382, 149131.48985767365], [996739.5639238358, 149149.4415769577], [996744.1272158623, 149158.91267681122], [996818.0463624, 149287.56532621384], [996819.9663319588, 149290.99116277695], [996827.09263134, 149306.0183815956], [996833.8455495834, 149325.18598127365], [996836.6890649796, 149344.8795146942], [996837.1654376984, 149358.94082021713], [996837.0906395912, 149374.80694150925], [996835.3042035103, 149412.52144479752], [996889.5780668259, 149415.97123908997], [996900.9054632187, 149338.3765630722]]]}}]}